[{"OBJECT_NAME":"GOES 14","OBJECT_ID":"2009-033A","EPOCH":"2026-04-25T21:02:38.626944","MEAN_MOTION":1.00116377,"ECCENTRICITY":0.000171,"INCLINATION":1.557,"RA_OF_ASC_NODE":83.637,"ARG_OF_PERICENTER":311.6603,"MEAN_ANOMALY":305.3506,"EPHEMERIS_TYPE":0,"CLASSIFICATION_TYPE":"U","NORAD_CAT_ID":35491,"ELEMENT_SET_NO":999,"REV_AT_EPOCH":606,"BSTAR":0,"MEAN_MOTION_DOT":-5.7e-7,"MEAN_MOTION_DDOT":0},{"OBJECT_NAME":"EWS-G2 (GOES 15)","OBJECT_ID":"2010-008A","EPOCH":"2026-04-25T19:02:40.039872","MEAN_MOTION":1.00272333,"ECCENTRICITY":0.000388,"INCLINATION":1.1398,"RA_OF_ASC_NODE":83.801,"ARG_OF_PERICENTER":23.6059,"MEAN_ANOMALY":95.321,"EPHEMERIS_TYPE":0,"CLASSIFICATION_TYPE":"U","NORAD_CAT_ID":36411,"ELEMENT_SET_NO":999,"REV_AT_EPOCH":5911,"BSTAR":0,"MEAN_MOTION_DOT":1.0e-7,"MEAN_MOTION_DDOT":0},{"OBJECT_NAME":"GOES 16","OBJECT_ID":"2016-071A","EPOCH":"2026-04-25T15:00:38.644992","MEAN_MOTION":1.00271047,"ECCENTRICITY":0.0001543,"INCLINATION":0.2096,"RA_OF_ASC_NODE":85.2522,"ARG_OF_PERICENTER":247.7106,"MEAN_ANOMALY":1.1255,"EPHEMERIS_TYPE":0,"CLASSIFICATION_TYPE":"U","NORAD_CAT_ID":41866,"ELEMENT_SET_NO":999,"REV_AT_EPOCH":3457,"BSTAR":0,"MEAN_MOTION_DOT":-1.04e-6,"MEAN_MOTION_DDOT":0},{"OBJECT_NAME":"GOES 17","OBJECT_ID":"2018-022A","EPOCH":"2026-04-25T20:49:38.771040","MEAN_MOTION":1.00272049,"ECCENTRICITY":6.72e-5,"INCLINATION":0.8053,"RA_OF_ASC_NODE":86.4106,"ARG_OF_PERICENTER":269.383,"MEAN_ANOMALY":81.0047,"EPHEMERIS_TYPE":0,"CLASSIFICATION_TYPE":"U","NORAD_CAT_ID":43226,"ELEMENT_SET_NO":999,"REV_AT_EPOCH":2989,"BSTAR":0,"MEAN_MOTION_DOT":-1.95e-6,"MEAN_MOTION_DDOT":0},{"OBJECT_NAME":"GOES 18","OBJECT_ID":"2022-021A","EPOCH":"2026-04-25T16:22:53.166720","MEAN_MOTION":1.00271801,"ECCENTRICITY":3.86e-5,"INCLINATION":0.0124,"RA_OF_ASC_NODE":93.6914,"ARG_OF_PERICENTER":357.8405,"MEAN_ANOMALY":230.8777,"EPHEMERIS_TYPE":0,"CLASSIFICATION_TYPE":"U","NORAD_CAT_ID":51850,"ELEMENT_SET_NO":999,"REV_AT_EPOCH":606,"BSTAR":0,"MEAN_MOTION_DOT":8.3e-7,"MEAN_MOTION_DDOT":0},{"OBJECT_NAME":"GOES 19","OBJECT_ID":"2024-119A","EPOCH":"2026-04-25T20:49:38.771040","MEAN_MOTION":1.00270221,"ECCENTRICITY":5.76e-5,"INCLINATION":0.0279,"RA_OF_ASC_NODE":93.9673,"ARG_OF_PERICENTER":349.8122,"MEAN_ANOMALY":7.3054,"EPHEMERIS_TYPE":0,"CLASSIFICATION_TYPE":"U","NORAD_CAT_ID":60133,"ELEMENT_SET_NO":999,"REV_AT_EPOCH":643,"BSTAR":0,"MEAN_MOTION_DOT":-2.62e-6,"MEAN_MOTION_DDOT":0}]
